STARLINK-4617           
1 53675U 22105AD  25286.39222059  .00000194  00000+0  17631-4 0  9996
2 53675  97.6022 166.1020 0002436  85.0008 275.1497 15.05645456171146
STARLINK-4621           
1 53676U 22105AE  25286.63206425 -.00000007  00000+0  40045-5 0  9993
2 53676  97.6009 166.2383 0001338 120.7262 239.4095 15.01257902171175
STARLINK-4579           
1 53677U 22105AF  25286.66667824  .00029209  00000+0  20206-2 0  9999
2 53677  97.6035 166.3225 0002163  85.9723 185.9180 15.05642204  5782
STARLINK-4632           
1 53679U 22105AH  25286.64975192 -.00000184  00000+0 -85433-5 0  9998
2 53679  97.6017 166.3734 0002769  83.2418 276.9123 15.05641534171184
STARLINK-4630           
1 53680U 22105AJ  25286.66667824  .00026422  00000+0  18686-2 0  9996
2 53680  97.6039 166.3066 0002182  85.4971 204.0097 15.04837673  5789
STARLINK-4424           
1 53681U 22105AK  25286.62465790  .00000446  00000+0  39264-4 0  9996
2 53681  97.6027 166.2526 0002387  78.8060 281.3433 15.01260975171170
STARLINK-4438           
1 53682U 22105AL  25286.66667824  .00025010  00000+0  19431-2 0  9999
2 53682  97.6033 166.3001 0002886  79.6098 197.4528 15.01292960  5684
STARLINK-4625           
1 53683U 22105AM  25286.63045676  .00000140  00000+0  15420-4 0  9995
2 53683  97.6006 166.2327 0001337  74.0818 286.0554 15.01260772171172
STARLINK-4624           
1 53684U 22105AN  25286.38026285 -.00001556  00000+0 -11666-3 0  9994
2 53684  97.6017 166.0558 0000600  86.7490 273.3803 15.01255333171114
STARLINK-4626           
1 53685U 22105AP  25286.66667824  .00024580  00000+0  19119-2 0  9996
2 53685  97.6032 166.2842 0002116  82.6005 153.1957 15.01253172  5784
STARLINK-4467           
1 53686U 22105AQ  25286.39506902  .00001176  00000+0  96082-4 0  9998
2 53686  97.6000 166.0690 0002541  87.2588 272.8927 15.01273642171142
STARLINK-4569           
1 53687U 22105AR  25286.42269908  .00021671  00000+0  16794-2 0  9997
2 53687  97.6034 166.0414 0003265  83.3736 276.7860 15.01420339171146
STARLINK-4571           
1 53688U 22105AS  25286.61725694  .00000357  00000+0  32333-4 0  9995
2 53688  97.6039 166.2328 0002692  84.6743 275.4789 15.01256129171176
STARLINK-4570           
1 53690U 22105AU  25286.23955656 -.00000596  00000+0 -41885-4 0  9998
2 53690  97.6020 165.7964 0001246 162.5257 197.6011 15.01256924171119
STARLINK-4560           
1 53691U 22105AV  25286.66667824  .00018221  00000+0  12916-2 0  9996
2 53691  97.6030 166.3064 0002657  87.7006 248.2654 15.04832148  5782
STARLINK-4572           
1 53692U 22105AW  25286.65565525  .00034813  00000+0  20474-2 0  9994
2 53692  97.6335 167.8249 0005022  53.5080 306.6612 15.11561689171272
STARLINK-4566           
1 53693U 22105AX  25286.62759432  .00002445  00000+0  17358-3 0  9998
2 53693  97.6014 166.3554 0001546  86.8614 273.2790 15.05656608171184
YAOGAN-33 02            
1 53698U 22106A   25286.66051586  .00000252  00000+0  63412-4 0  9990
2 53698  98.1857 293.2231 0002046 230.6763 129.4256 14.59051942165788
STARLINK-4725           
1 53700U 22107A   25285.14321668  .00000839  00000+0  70774-4 0  9998
2 53700  53.2172 190.5983 0001450  90.2090 269.9068 15.08847725172436
STARLINK-4711           
1 53701U 22107B   25286.00065652 -.00000335  00000+0 -29619-5 0  9999
2 53701  53.2175 186.7125 0001777  80.3613 279.7580 15.08841647172567
STARLINK-4724           
1 53702U 22107C   25285.95974998 -.00001769  00000+0 -93053-4 0  9999
2 53702  53.2151 172.2078 0001380  90.3534 269.7616 15.08856928172794
STARLINK-4731           
1 53703U 22107D   25286.41282069  .00002340  00000+0  16500-3 0  9998
2 53703  53.2206 185.0201 0001315  90.9998 269.1145 15.08856620172626
STARLINK-4714           
1 53704U 22107E   25286.46073050 -.00002288  00000+0 -12567-3 0  9994
2 53704  53.2182 185.3110 0001361  96.4852 263.6296 15.08857653172468
STARLINK-4717           
1 53705U 22107F   25286.45705607 -.00000485  00000+0 -12371-4 0  9995
2 53705  53.2166 185.2906 0001831  80.5229 279.5970 15.08841663172624
STARLINK-4716           
1 53706U 22107G   25286.44231667 -.00000497  00000+0 -13143-4 0  9996
2 53706  53.2160 185.1996 0001338  90.4975 269.6171 15.08843955172626
STARLINK-4667           
1 53707U 22107H   25285.97080779  .00000661  00000+0  59637-4 0  9999
2 53707  53.2151 172.2680 0001625  94.0384 266.0794 15.08843293172769
STARLINK-4694           
1 53708U 22107J   25285.95607207 -.00000185  00000+0  64422-5 0  9990
2 53708  53.2142 172.1887 0001528  83.1252 276.9914 15.08838551172768
STARLINK-4685           
1 53709U 22107K   25285.74445958  .00002115  00000+0  15093-3 0  9993
2 53709  53.2167 192.9670 0001974  82.3683 277.7534 15.08838281172149
STARLINK-4627           
1 53711U 22107M   25286.02046457  .00000902  00000+0  74771-4 0  9990
2 53711  53.2167 191.8355 0001048  89.3668 270.7444 15.08840974172181
STARLINK-4683           
1 53712U 22107N   25286.45834706  .00000934  00000+0  76762-4 0  9997
2 53712  53.2167 189.6121 0001311  82.1093 278.0048 15.08847695172272
STARLINK-4686           
1 53715U 22107R   25286.08070937  .00000859  00000+0  72042-4 0  9990
2 53715  53.2151 196.4811 0001377  85.2779 274.8371 15.08844908172139
STARLINK-4699           
1 53716U 22107S   25286.47446768 -.00000504  00000+0 -13545-4 0  9995
2 53716  53.2172 194.6724 0001435  83.5539 276.5617 15.08852044172183
STARLINK-4695           
1 53718U 22107U   25286.06701974  .00000025  00000+0  19676-4 0  9992
2 53718  53.2183 197.0902 0001480  87.7725 272.3437 15.08838784172117
STARLINK-4644           
1 53719U 22107V   25286.39993934  .00001556  00000+0  11581-3 0  9994
2 53719  53.2141 164.9550 0001260  84.1530 275.9606 15.08845505172605
STARLINK-4642           
1 53720U 22107W   25286.01815674  .00000324  00000+0  38432-4 0  9996
2 53720  53.2165 196.8005 0001445  84.5846 275.5311 15.08840624172124
STARLINK-4707           
1 53721U 22107X   25286.48920958  .00000228  00000+0  32390-4 0  9990
2 53721  53.2165 194.7656 0001374  89.3059 270.8091 15.08837094172191
STARLINK-4700           
1 53722U 22107Y   25286.03289470 -.00001023  00000+0 -46169-4 0  9994
2 53722  53.2173 196.8865 0001588  93.4300 266.6874 15.08841234172113
STARLINK-4705           
1 53723U 22107Z   25286.47076910  .00002476  00000+0  17353-3 0  9999
2 53723  53.2184 194.6576 0001602  87.8884 272.2291 15.08856955172338
STARLINK-4663           
1 53724U 22107AA  25286.48552209 -.00000195  00000+0  58456-5 0  9999
2 53724  53.2163 194.7410 0001462  88.0527 272.0633 15.08839351172198
STARLINK-4697           
1 53726U 22107AC  25286.02921089  .00000016  00000+0  19094-4 0  9992
2 53726  53.2189 196.8672 0001474  89.2905 270.8257 15.08844530172123
STARLINK-4701           
1 53727U 22107AD  25286.04026758  .00000394  00000+0  42847-4 0  9995
2 53727  53.2149 196.9348 0002022  89.9491 270.1733 15.08841053172262
STARLINK-4640           
1 53728U 22107AE  25286.03658341 -.00000397  00000+0 -68636-5 0  9994
2 53728  53.2190 196.9132 0001500  99.4513 260.6649 15.08839277172266
STARLINK-4651           
1 53729U 22107AF  25286.44875839 -.00000526  00000+0 -14957-4 0  9993
2 53729  53.2176 195.2200 0001242  80.2014 279.9119 15.08849144172355
STARLINK-4641           
1 53730U 22107AG  25286.44139428  .00000013  00000+0  18893-4 0  9994
2 53730  53.2165 195.1771 0001448  89.0663 271.0495 15.08837681172322
STARLINK-4636           
1 53731U 22107AH  25286.05501283 -.00000475  00000+0 -11748-4 0  9990
2 53731  53.2168 197.0297 0001239  83.1571 276.9563 15.08832323172295
STARLINK-4661           
1 53732U 22107AJ  25286.44603161  .00001195  00000+0  93165-4 0  9993
2 53732  53.2174 195.2070 0001477  79.5162 280.5997 15.08842411172326
STARLINK-4574           
1 53733U 22107AK  25286.45981316  .00000300  00000+0  36965-4 0  9998
2 53733  53.2168 195.2912 0001357  78.9808 281.1336 15.08841059172356
STARLINK-4616           
1 53734U 22107AL  25286.04763877  .00000090  00000+0  23718-4 0  9992
2 53734  53.2162 196.9863 0001227  86.9612 273.1521 15.08834944172297
STARLINK-4618           
1 53735U 22107AM  25286.48827980  .00001714  00000+0  12571-3 0  9995
2 53735  53.2163 204.7467 0001433  85.3817 274.7339 15.08844026172225
STARLINK-4652           
1 53736U 22107AN  25286.05869446 -.00000125  00000+0  10265-4 0  9997
2 53736  53.2203 197.0539 0002100 101.3056 258.8173 15.08836563172294
STARLINK-4646           
1 53737U 22107AP  25286.00064503  .00086482  00000+0  16857-2 0  9994
2 53737  53.1992 181.2614 0004855 130.7492 229.3938 15.46811216172660
STARLINK-4662           
1 53738U 22107AQ  25286.48460432  .00000187  00000+0  29830-4 0  9993
2 53738  53.2170 204.7257 0001398  86.0803 274.0349 15.08835780172227
STARLINK-4607           
1 53740U 22107AS  25286.49563652 -.00000762  00000+0 -29791-4 0  9992
2 53740  53.2160 204.7920 0001365 128.4405 231.6710 15.08868238172370
STARLINK-4637           
1 53742U 22107AU  25286.49933150  .00003977  00000+0  26781-3 0  9992
2 53742  53.2170 204.8140 0001442  78.5295 281.5859 15.08841756172370
STARLINK-4645           
1 53743U 22107AV  25286.05039641  .00000138  00000+0  26737-4 0  9995
2 53743  53.2179 206.9899 0001562  81.3207 278.7962 15.08841540172309
STARLINK-4670           
1 53744U 22107AW  25286.46986214  .00002831  00000+0  19595-3 0  9993
2 53744  53.2176 204.6390 0001478  86.3345 273.7816 15.08829869172372
STARLINK-4656           
1 53745U 22107AX  25286.51775895 -.00000791  00000+0 -31591-4 0  9997
2 53745  53.2152 204.9299 0001145 102.5685 257.5435 15.08842577172375
STARLINK-4589           
1 53746U 22107AY  25286.51039239  .00001247  00000+0  96430-4 0  9991
2 53746  53.2172 204.8833 0001427  88.2483 271.8673 15.08836547172373
STARLINK-4612           
1 53750U 22107BC  25286.06143633  .00000085  00000+0  23422-4 0  9990
2 53750  53.2168 207.0585 0000374  19.3126 340.7881 15.08862485172312
